start=new Date('2023-03-20T00:00:00.000Z').valueOf();
sats=[{"MEAN_ELEMENT_THEORY":"SGP4","LAUNCH_DATE":"2023-01-31","EPOCH":"2023-03-19T18:28:40.388160","DECAY_DATE":null,"ARG_OF_PERICENTER":"264.6996","APOAPSIS":"361.484","FILE":"3865354","ELEMENT_SET_NO":"999","TLE_LINE2":"2 55418  69.9989 317.3258 0003526 264.6996  95.3798 15.69926777  8538","OBJECT_TYPE":"PAYLOAD","MEAN_MOTION":"15.69926777","INCLINATION":"69.9989","CENTER_NAME":"EARTH","PERIAPSIS":"356.733","RA_OF_ASC_NODE":"317.3258","MEAN_MOTION_DDOT":"0.0000000000000","BSTAR":"0.00024523000000","TLE_LINE1":"1 55418U 23014AD  23078.76991190  .00029381  00000-0  24523-3 0  9997","REF_FRAME":"TEME","GP_ID":"228479996","REV_AT_EPOCH":"853","OBJECT_ID":"2023-014AD","MEAN_ANOMALY":"95.3798","TIME_SYSTEM":"UTC","COUNTRY_CODE":"US","SITE":"AFWTR","ECCENTRICITY":"0.00035260","SEMIMAJOR_AXIS":"6737.243","MEAN_MOTION_DOT":"0.00029381","OBJECT_NAME":"STARLINK-5030","NORAD_CAT_ID":"55418","CLASSIFICATION_TYPE":"U","RCS_SIZE":"LARGE","EPHEMERIS_TYPE":"0","PERIOD":"91.724"},{"TLE_LINE1":"1 55419U 23014AE  23078.76959274  .00000227  00000-0  36592-5 0  9994","MEAN_MOTION_DDOT":"0.0000000000000","BSTAR":"0.00000365920000","RA_OF_ASC_NODE":"317.3228","CENTER_NAME":"EARTH","PERIAPSIS":"356.563","INCLINATION":"69.9989","MEAN_MOTION":"15.69917514","OBJECT_TYPE":"PAYLOAD","TLE_LINE2":"2 55419  69.9989 317.3228 0003818 267.4087  92.6672 15.69917514  8532","ELEMENT_SET_NO":"999","FILE":"3865354","APOAPSIS":"361.707","DECAY_DATE":null,"ARG_OF_PERICENTER":"267.4087","EPOCH":"2023-03-19T18:28:12.812736","LAUNCH_DATE":"2023-01-31","MEAN_ELEMENT_THEORY":"SGP4","PERIOD":"91.725","EPHEMERIS_TYPE":"0","RCS_SIZE":"LARGE","CLASSIFICATION_TYPE":"U","OBJECT_NAME":"STARLINK-5629","NORAD_CAT_ID":"55419","MEAN_MOTION_DOT":"0.00000227","SEMIMAJOR_AXIS":"6737.270","ECCENTRICITY":"0.00038180","SITE":"AFWTR","COUNTRY_CODE":"US","TIME_SYSTEM":"UTC","MEAN_ANOMALY":"92.6672","OBJECT_ID":"2023-014AE","REV_AT_EPOCH":"853","GP_ID":"228480745","REF_FRAME":"TEME"},{"GP_ID":"228479495","REV_AT_EPOCH":"853","REF_FRAME":"TEME","TIME_SYSTEM":"UTC","MEAN_ANOMALY":"88.9852","OBJECT_ID":"2023-014AF","MEAN_MOTION_DOT":"0.00001317","NORAD_CAT_ID":"55420","OBJECT_NAME":"STARLINK-5604","SEMIMAJOR_AXIS":"6737.222","PERIOD":"91.724","EPHEMERIS_TYPE":"0","RCS_SIZE":"LARGE","CLASSIFICATION_TYPE":"U","SITE":"AFWTR","COUNTRY_CODE":"US","ECCENTRICITY":"0.00033040","FILE":"3865354","APOAPSIS":"361.313","ELEMENT_SET_NO":"999","LAUNCH_DATE":"2023-01-31","MEAN_ELEMENT_THEORY":"SGP4","DECAY_DATE":null,"ARG_OF_PERICENTER":"271.0965","EPOCH":"2023-03-19T18:23:48.277536","RA_OF_ASC_NODE":"317.3314","CENTER_NAME":"EARTH","PERIAPSIS":"356.861","INCLINATION":"69.9997","TLE_LINE1":"1 55420U 23014AF  23078.76653099  .00001317  00000-0  12711-4 0  9999","MEAN_MOTION_DDOT":"0.0000000000000","BSTAR":"0.00001271100000","OBJECT_TYPE":"PAYLOAD","TLE_LINE2":"2 55420  69.9997 317.3314 0003304 271.0965  88.9852 15.69934348  8537","MEAN_MOTION":"15.69934348"},{"APOAPSIS":"361.392","FILE":"3865354","ELEMENT_SET_NO":"999","LAUNCH_DATE":"2023-01-31","MEAN_ELEMENT_THEORY":"SGP4","ARG_OF_PERICENTER":"268.1184","DECAY_DATE":null,"EPOCH":"2023-03-19T18:28:30.898848","CENTER_NAME":"EARTH","PERIAPSIS":"356.826","INCLINATION":"69.9984","RA_OF_ASC_NODE":"317.3244","BSTAR":"-0.00003482400000","MEAN_MOTION_DDOT":"0.0000000000000","TLE_LINE1":"1 55421U 23014AG  23078.76980207 -.00004398  00000-0 -34824-4 0  9997","OBJECT_TYPE":"PAYLOAD","TLE_LINE2":"2 55421  69.9984 317.3244 0003389 268.1184  91.9623 15.69926587  8535","MEAN_MOTION":"15.69926587","REF_FRAME":"TEME","REV_AT_EPOCH":"853","GP_ID":"228479745","MEAN_ANOMALY":"91.9623","OBJECT_ID":"2023-014AG","TIME_SYSTEM":"UTC","SEMIMAJOR_AXIS":"6737.244","OBJECT_NAME":"STARLINK-5598","NORAD_CAT_ID":"55421","MEAN_MOTION_DOT":"-0.00004398","RCS_SIZE":"LARGE","CLASSIFICATION_TYPE":"U","PERIOD":"91.724","EPHEMERIS_TYPE":"0","SITE":"AFWTR","COUNTRY_CODE":"US","ECCENTRICITY":"0.00033890"},{"ECCENTRICITY":"0.00030780","COUNTRY_CODE":"US","SITE":"AFWTR","CLASSIFICATION_TYPE":"U","RCS_SIZE":"LARGE","EPHEMERIS_TYPE":"0","PERIOD":"91.724","SEMIMAJOR_AXIS":"6737.243","NORAD_CAT_ID":"55422","OBJECT_NAME":"STARLINK-5006","MEAN_MOTION_DOT":"0.00004255","OBJECT_ID":"2023-014AH","MEAN_ANOMALY":"91.3511","TIME_SYSTEM":"UTC","REF_FRAME":"TEME","GP_ID":"228480497","REV_AT_EPOCH":"853","MEAN_MOTION":"15.69927039","OBJECT_TYPE":"PAYLOAD","TLE_LINE2":"2 55422  69.9994 317.3264 0003078 268.7332  91.3511 15.69927039  8538","BSTAR":"0.00003713500000","MEAN_MOTION_DDOT":"0.0000000000000","TLE_LINE1":"1 55422U 23014AH  23078.77043701  .00004255  00000-0  37135-4 0  9996","INCLINATION":"69.9994","PERIAPSIS":"357.034","CENTER_NAME":"EARTH","RA_OF_ASC_NODE":"317.3264","EPOCH":"2023-03-19T18:29:25.757664","ARG_OF_PERICENTER":"268.7332","DECAY_DATE":null,"LAUNCH_DATE":"2023-01-31","MEAN_ELEMENT_THEORY":"SGP4","ELEMENT_SET_NO":"999","APOAPSIS":"361.181","FILE":"3865354"},{"OBJECT_NAME":"STARLINK-5068","MEAN_MOTION_DOT":"0.00003534","NORAD_CAT_ID":"55423","SEMIMAJOR_AXIS":"6737.256","EPHEMERIS_TYPE":"0","PERIOD":"91.724","CLASSIFICATION_TYPE":"U","RCS_SIZE":"LARGE","COUNTRY_CODE":"US","SITE":"AFWTR","ECCENTRICITY":"0.00034060","REV_AT_EPOCH":"853","GP_ID":"228480245","REF_FRAME":"TEME","TIME_SYSTEM":"UTC","OBJECT_ID":"2023-014AJ","MEAN_ANOMALY":"94.4025","RA_OF_ASC_NODE":"317.3261","INCLINATION":"69.9992","PERIAPSIS":"356.826","CENTER_NAME":"EARTH","TLE_LINE1":"1 55423U 23014AJ  23078.77001599  .00003534  00000-0  31148-4 0  9993","MEAN_MOTION_DDOT":"0.0000000000000","BSTAR":"0.00003114800000","TLE_LINE2":"2 55423  69.9992 317.3261 0003406 265.6781  94.4025 15.69922446  8534","OBJECT_TYPE":"PAYLOAD","MEAN_MOTION":"15.69922446","FILE":"3865354","APOAPSIS":"361.416","ELEMENT_SET_NO":"999","MEAN_ELEMENT_THEORY":"SGP4","LAUNCH_DATE":"2023-01-31","EPOCH":"2023-03-19T18:28:49.381536","DECAY_DATE":null,"ARG_OF_PERICENTER":"265.6781"},{"FILE":"3865354","APOAPSIS":"361.858","ELEMENT_SET_NO":"999","MEAN_ELEMENT_THEORY":"SGP4","LAUNCH_DATE":"2023-01-31","EPOCH":"2023-03-19T18:29:06.372960","DECAY_DATE":null,"ARG_OF_PERICENTER":"269.3024","RA_OF_ASC_NODE":"317.3253","INCLINATION":"69.9972","CENTER_NAME":"EARTH","PERIAPSIS":"356.301","TLE_LINE1":"1 55425U 23014AL  23078.77021265 -.00002396  00000-0 -18148-4 0  9999","BSTAR":"-0.00001814800000","MEAN_MOTION_DDOT":"0.0000000000000","OBJECT_TYPE":"PAYLOAD","TLE_LINE2":"2 55425  69.9972 317.3253 0004124 269.3024  90.7699 15.69937001  8533","MEAN_MOTION":"15.69937001","GP_ID":"228478995","REV_AT_EPOCH":"853","REF_FRAME":"TEME","TIME_SYSTEM":"UTC","OBJECT_ID":"2023-014AL","MEAN_ANOMALY":"90.7699","NORAD_CAT_ID":"55425","OBJECT_NAME":"STARLINK-5615","MEAN_MOTION_DOT":"-0.00002396","SEMIMAJOR_AXIS":"6737.214","EPHEMERIS_TYPE":"0","PERIOD":"91.723","CLASSIFICATION_TYPE":"U","RCS_SIZE":"LARGE","COUNTRY_CODE":"US","SITE":"AFWTR","ECCENTRICITY":"0.00041240"},{"TLE_LINE1":"1 55426U 23014AM  23078.77074803 -.00000190  00000-0  18810-6 0  9993","BSTAR":"0.00000018810000","MEAN_MOTION_DDOT":"0.0000000000000","RA_OF_ASC_NODE":"317.3269","PERIAPSIS":"356.597","CENTER_NAME":"EARTH","INCLINATION":"69.9982","MEAN_MOTION":"15.69929642","TLE_LINE2":"2 55426  69.9982 317.3269 0003716 266.0274  94.0497 15.69929642  8534","OBJECT_TYPE":"PAYLOAD","ELEMENT_SET_NO":"999","FILE":"3865354","APOAPSIS":"361.604","ARG_OF_PERICENTER":"266.0274","DECAY_DATE":null,"EPOCH":"2023-03-19T18:29:52.629792","MEAN_ELEMENT_THEORY":"SGP4","LAUNCH_DATE":"2023-01-31","PERIOD":"91.724","EPHEMERIS_TYPE":"0","RCS_SIZE":"LARGE","CLASSIFICATION_TYPE":"U","OBJECT_NAME":"STARLINK-5638","MEAN_MOTION_DOT":"-0.00000190","NORAD_CAT_ID":"55426","SEMIMAJOR_AXIS":"6737.235","ECCENTRICITY":"0.00037160","SITE":"AFWTR","COUNTRY_CODE":"US","TIME_SYSTEM":"UTC","MEAN_ANOMALY":"94.0497","OBJECT_ID":"2023-014AM","REV_AT_EPOCH":"853","GP_ID":"228479245","REF_FRAME":"TEME"},{"FILE":"3865354","APOAPSIS":"361.273","ELEMENT_SET_NO":"999","MEAN_ELEMENT_THEORY":"SGP4","LAUNCH_DATE":"2023-01-31","DECAY_DATE":null,"ARG_OF_PERICENTER":"266.5122","EPOCH":"2023-03-19T18:29:16.549152","RA_OF_ASC_NODE":"317.3268","CENTER_NAME":"EARTH","PERIAPSIS":"356.960","INCLINATION":"69.9982","TLE_LINE1":"1 55427U 23014AN  23078.77033043  .00009961  00000-0  84515-4 0  9992","MEAN_MOTION_DDOT":"0.0000000000000","BSTAR":"0.00008451500000","OBJECT_TYPE":"PAYLOAD","TLE_LINE2":"2 55427  69.9982 317.3268 0003201 266.5122  93.5707 15.69923983  8530","MEAN_MOTION":"15.69923983","REV_AT_EPOCH":"853","GP_ID":"228479997","REF_FRAME":"TEME","TIME_SYSTEM":"UTC","MEAN_ANOMALY":"93.5707","OBJECT_ID":"2023-014AN","NORAD_CAT_ID":"55427","OBJECT_NAME":"STARLINK-5073","MEAN_MOTION_DOT":"0.00009961","SEMIMAJOR_AXIS":"6737.251","PERIOD":"91.724","EPHEMERIS_TYPE":"0","RCS_SIZE":"LARGE","CLASSIFICATION_TYPE":"U","SITE":"AFWTR","COUNTRY_CODE":"US","ECCENTRICITY":"0.00032010"},{"INCLINATION":"69.9985","PERIAPSIS":"357.021","CENTER_NAME":"EARTH","RA_OF_ASC_NODE":"317.3290","BSTAR":"0.00006385300000","MEAN_MOTION_DDOT":"0.0000000000000","TLE_LINE1":"1 55428U 23014AP  23078.77094883  .00007475  00000-0  63853-4 0  9992","TLE_LINE2":"2 55428  69.9985 317.3290 0003059 246.8918 113.1956 15.69935963  8530","OBJECT_TYPE":"PAYLOAD","MEAN_MOTION":"15.69935963","APOAPSIS":"361.143","FILE":"3865354","ELEMENT_SET_NO":"999","MEAN_ELEMENT_THEORY":"SGP4","LAUNCH_DATE":"2023-01-31","EPOCH":"2023-03-19T18:30:09.978912","ARG_OF_PERICENTER":"246.8918","DECAY_DATE":null,"SEMIMAJOR_AXIS":"6737.217","NORAD_CAT_ID":"55428","OBJECT_NAME":"STARLINK-5064","MEAN_MOTION_DOT":"0.00007475","CLASSIFICATION_TYPE":"U","RCS_SIZE":"LARGE","EPHEMERIS_TYPE":"0","PERIOD":"91.723","COUNTRY_CODE":"US","SITE":"AFWTR","ECCENTRICITY":"0.00030590","REF_FRAME":"TEME","GP_ID":"228480746","REV_AT_EPOCH":"853","OBJECT_ID":"2023-014AP","MEAN_ANOMALY":"113.1956","TIME_SYSTEM":"UTC"}];
